LANDSAT 9               
1 49260U 21088A   24010.13277077  .00000593  00000+0  14169-3 0  9991
2 49260  98.2080  82.3019 0001134  85.4342 274.6986 14.57103739121521
